ONEWEB-0371             
1 49297U 21090U   25071.16233951  .00000019  00000+0  14573-4 0  9991
2 49297  87.9206  36.7901 0002005  79.1208 281.0151 13.19725539166809
ONEWEB-0372             
1 49298U 21090V   25070.81765307 -.00000902  00000+0 -22502-2 0  9990
2 49298  87.9332   6.4640 0002082  80.2404 279.8964 13.20763668170102
ONEWEB-0373             
1 49299U 21090W   25071.07189110  .00000043  00000+0  73679-4 0  9999
2 49299  87.9329   6.4260 0001814  86.8553 273.2787 13.20772215171320
ONEWEB-0374             
1 49300U 21090X   25071.08377553  .00000177  00000+0  44311-3 0  9991
2 49300  87.9070  21.5815 0001970  97.0131 263.1223 13.14500690168147
ONEWEB-0375             
1 49301U 21090Y   25071.05924846  .00000091  00000+0  19245-3 0  9995
2 49301  87.9331   6.4061 0001481  98.2449 261.8853 13.20772150170815
ONEWEB-0376             
1 49302U 21090Z   25071.16076238  .00000025  00000+0  29697-4 0  9991
2 49302  87.9201  36.7814 0002178  80.1685 279.9693 13.19725282166796
ONEWEB-0377             
1 49303U 21090AA  25071.04519167  .00000055  00000+0  10424-3 0  9992
2 49303  87.9331   6.4015 0001617  74.5995 285.5317 13.20771194170792
ONEWEB-0378             
1 49304U 21090AB  25071.06728853  .00000000  00000+0 -32549-4 0  9993
2 49304  87.9332   6.4033 0001805  83.3995 276.7343 13.20772642170106
